[{"OBJECT_NAME":"LEMUR-2-ANDIS","OBJECT_ID":"2017-042P","EPOCH":"2026-03-09T13:25:33.116448","MEAN_MOTION":15.30557934,"ECCENTRICITY":0.0009101,"INCLINATION":97.3659,"RA_OF_ASC_NODE":249.795,"ARG_OF_PERICENTER":4.3248,"MEAN_ANOMALY":355.807,"EPHEMERIS_TYPE":0,"CLASSIFICATION_TYPE":"U","NORAD_CAT_ID":42838,"ELEMENT_SET_NO":999,"REV_AT_EPOCH":47319,"BSTAR":0.00079875,"MEAN_MOTION_DOT":0.00023598,"MEAN_MOTION_DDOT":0},{"OBJECT_NAME":"STARLINK-32383","OBJECT_ID":"2024-204T","EPOCH":"2026-03-09T13:08:34.873440","MEAN_MOTION":15.30189917,"ECCENTRICITY":0.0001168,"INCLINATION":53.1607,"RA_OF_ASC_NODE":127.8864,"ARG_OF_PERICENTER":113.3459,"MEAN_ANOMALY":246.7665,"EPHEMERIS_TYPE":0,"CLASSIFICATION_TYPE":"U","NORAD_CAT_ID":61891,"ELEMENT_SET_NO":999,"REV_AT_EPOCH":7507,"BSTAR":-1.2773e-6,"MEAN_MOTION_DOT":-3.97e-6,"MEAN_MOTION_DDOT":0}]
